STARLINK-30122          
1 56688U 23067A   26185.70643386  .00001269  00000+0  55616-4 0  9994
2 56688  43.0048 337.2143 0001469 274.8436  85.2247 15.27580987173585
STARLINK-30129          
1 56689U 23067B   26185.49178181  .00004188  00000+0  16163-3 0  9993
2 56689  43.0028 341.5994 0001096 251.8139 108.2594 15.27579912173449
STARLINK-30124          
1 56690U 23067C   26185.69437112  .00002411  00000+0  97106-4 0  9993
2 56690  43.0043 340.5484 0001428 262.0662  98.0027 15.27579659173473
STARLINK-30036          
1 56692U 23067E   26185.48921572  .00003454  00000+0  13491-3 0  9992
2 56692  43.0051 341.6054 0001452 212.6393 147.4369 15.27596789172311
STARLINK-30067          
1 56693U 23067F   26185.49563782  .00003058  00000+0  12058-3 0  9997
2 56693  43.0059 341.6554 0001753 262.9702  97.0951 15.27587470173440
STARLINK-30126          
1 56694U 23067G   26185.47992145  .00003562  00000+0  13889-3 0  9998
2 56694  43.0056 334.7293 0001692 258.4571 101.6090 15.27581197173522
STARLINK-30121          
1 56695U 23067H   26185.69563990  .00004542  00000+0  17437-3 0  9997
2 56695  43.0047 340.5550 0001492 269.8089  90.2592 15.27598788173470
STARLINK-30130          
1 56697U 23067K   26185.67143121  .00003816  00000+0  14804-3 0  9995
2 56697  42.9987 330.1694 0000814 197.3255 162.7569 15.27593644173334
STARLINK-30068          
1 56698U 23067L   26185.43689040  .00008251  00000+0  30892-3 0  9998
2 56698  43.0032 320.5650 0002131 263.9548  96.1061 15.27589116173428
STARLINK-30127          
1 56699U 23067M   26185.83413842  .00002583  00000+0  10342-3 0  9998
2 56699  43.0029 339.8914 0001375 276.8061  83.2635 15.27564525173491
STARLINK-30053          
1 56700U 23067N   26185.43173449 -.00000693  00000+0 -15634-4 0  9995
2 56700  43.0034 331.8198 0001496 268.8448  91.2232 15.27588908173550
STARLINK-30125          
1 56701U 23067P   26185.42916923  .00002257  00000+0  91531-4 0  9993
2 56701  43.0025 331.8007 0001335 260.9900  99.0800 15.27575419173558
STARLINK-30117          
1 56702U 23067Q   26185.70898161  .00008178  00000+0  30612-3 0  9998
2 56702  43.0013 337.2038 0000726 259.9304 100.1466 15.27607583173515
STARLINK-30132          
1 56703U 23067R   26185.78757208  .00003542  00000+0  13809-3 0  9992
2 56703  43.0022 332.7320 0000886 242.4943 117.5819 15.27595683173570
STARLINK-30066          
1 56704U 23067S   26185.80605455  .00003540  00000+0  13805-3 0  9996
2 56704  43.0023 329.4513 0001125 273.2337  86.8386 15.27589870173618
STARLINK-30080          
1 56705U 23067T   26185.74147659  .00004722  00000+0  18088-3 0  9998
2 56705  43.0030 322.0112 0001418 268.4206  91.6483 15.27601123173693
STARLINK-30079          
1 56706U 23067U   26185.69694720  .00004721  00000+0  18096-3 0  9997
2 56706  43.0053 340.5876 0001789 266.8288  93.2359 15.27581341173479
STARLINK-30070          
1 56707U 23067V   26185.69454738  .00005963  00000+0  22594-3 0  9998
2 56707  43.0021 330.3505 0000795 239.3627 120.7146 15.27595247173592
STARLINK-30071          
1 56708U 23067W   26185.70435579  .00012235  00000+0  45321-3 0  9996
2 56708  43.0029 333.8252 0001198 266.9729  93.0986 15.27594836173558
STARLINK-30085          
1 56709U 23067X   26185.66757359  .00003359  00000+0  13145-3 0  9991
2 56709  43.0012 330.1405 0001137 231.0134 129.0617 15.27597758173330
STARLINK-6197           
1 56767U 23078A   26185.89805126  .00055017  00000+0  24060-2 0  9993
2 56767  69.9880  44.3675 0003995 299.8501  60.2273 15.21776460170357
STARLINK-6198           
1 56768U 23078B   26185.83006050  .00001146  00000+0  10384-3 0  9996
2 56768  69.9994  28.9683 0002652 267.2453  92.8403 14.98332929170723
STARLINK-6342           
1 56770U 23078D   26185.43014169 -.00002609  00000+0 -21092-3 0  9990
2 56770  70.0000  70.1172 0003077 269.5524  90.5283 14.98330870169671
STARLINK-6275           
1 56772U 23078F   26185.42581403 -.00000002  00000+0  76263-5 0  9997
2 56772  70.0010  70.1011 0002925 272.3421  87.7403 14.98331992169673
STARLINK-6296           
1 56773U 23078G   26185.79647681  .00000699  00000+0  66322-4 0  9994
2 56773  69.9992   9.3594 0002615 267.3594  92.7265 14.98335290171200
STARLINK-6190           
1 56774U 23078H   26185.37990960  .00000326  00000+0  35126-4 0  9995
2 56774  69.9998  70.3385 0002831 271.4755  88.6080 14.98333253169661
STARLINK-6292           
1 56775U 23078J   26185.79229492  .00000541  00000+0  53166-4 0  9990
2 56775  69.9994   9.3449 0003104 269.8167  90.2636 14.98332882171209
STARLINK-6274           
1 56776U 23078K   26185.28348486  .00000757  00000+0  71227-4 0  9997
2 56776  69.9998  30.6658 0003118 270.4208  89.6593 14.98319282170631
STARLINK-5582           
1 56777U 23078L   26185.37551425  .00000678  00000+0  64573-4 0  9995
2 56777  69.9999  50.4528 0002858 268.1773  91.9058 14.98331011170153
STARLINK-6304           
1 56778U 23078M   26185.81337896  .00005425  00000+0  46217-3 0  9998
2 56778  70.0002  29.3046 0002479 266.2726  93.8149 14.98327816170710
