OBJECT_NAME,OBJECT_ID,EPOCH,MEAN_MOTION,ECCENTRICITY,INCLINATION,RA_OF_ASC_NODE,ARG_OF_PERICENTER,MEAN_ANOMALY,EPHEMERIS_TYPE,CLASSIFICATION_TYPE,NORAD_CAT_ID,ELEMENT_SET_NO,REV_AT_EPOCH,BSTAR,MEAN_MOTION_DOT,MEAN_MOTION_DDOT
STARLINK-30122,2023-067A,2026-07-04T16:57:15.885504,15.27580987,.00014699,43.0048,337.2143,274.8436,85.2247,0,U,56688,999,17358,.55616337E-4,.1269E-4,0
STARLINK-30129,2023-067B,2026-07-04T11:48:09.948384,15.27579912,.00010966,43.0028,341.5994,251.8139,108.2594,0,U,56689,999,17344,.16163475E-3,.4188E-4,0
STARLINK-30124,2023-067C,2026-07-04T16:39:53.664768,15.27579659,.00014287,43.0043,340.5484,262.0662,98.0027,0,U,56690,999,17347,.97105611E-4,.2411E-4,0
STARLINK-30036,2023-067E,2026-07-04T11:44:28.238208,15.27596789,.00014529,43.0051,341.6054,212.6393,147.4369,0,U,56692,999,17231,.13491369E-3,.3454E-4,0
STARLINK-30067,2023-067F,2026-07-04T11:53:43.107648,15.27587470,.00017537,43.0059,341.6554,262.9702,97.0951,0,U,56693,999,17344,.12058297E-3,.3058E-4,0
STARLINK-30126,2023-067G,2026-07-04T11:31:05.213280,15.27581197,.00016927,43.0056,334.7293,258.4571,101.6090,0,U,56694,999,17352,.13888628E-3,.3562E-4,0
STARLINK-30121,2023-067H,2026-07-04T16:41:43.287360,15.27598788,.00014928,43.0047,340.5550,269.8089,90.2592,0,U,56695,999,17347,.17437182E-3,.4542E-4,0
STARLINK-30130,2023-067K,2026-07-04T16:06:51.656544,15.27593644,.00008145,42.9987,330.1694,197.3255,162.7569,0,U,56697,999,17333,.14804176E-3,.3816E-4,0
STARLINK-30068,2023-067L,2026-07-04T10:29:07.330560,15.27589116,.0002131,43.0032,320.5650,263.9548,96.1061,0,U,56698,999,17342,.30892349E-3,.8251E-4,0
STARLINK-30127,2023-067M,2026-07-04T20:01:09.559488,15.27564525,.00013754,43.0029,339.8914,276.8061,83.2635,0,U,56699,999,17349,.10341847E-3,.2583E-4,0
STARLINK-30053,2023-067N,2026-07-04T10:21:41.859936,15.27588908,.00014963,43.0034,331.8198,268.8448,91.2232,0,U,56700,999,17355,-.15634333E-4,-.693E-5,0
STARLINK-30125,2023-067P,2026-07-04T10:18:00.221472,15.27575419,.0001335,43.0025,331.8007,260.9900,99.0800,0,U,56701,999,17355,.91530518E-4,.2257E-4,0
STARLINK-30117,2023-067Q,2026-07-04T17:00:56.011104,15.27607583,.00007267,43.0013,337.2038,259.9304,100.1466,0,U,56702,999,17351,.30611626E-3,.8178E-4,0
STARLINK-30132,2023-067R,2026-07-04T18:54:06.227712,15.27595683,.0000886,43.0022,332.7320,242.4943,117.5819,0,U,56703,999,17357,.13809493E-3,.3542E-4,0
STARLINK-30066,2023-067S,2026-07-04T19:20:43.113120,15.27589870,.00011252,43.0023,329.4513,273.2337,86.8386,0,U,56704,999,17361,.13805368E-3,.354E-4,0
STARLINK-30080,2023-067T,2026-07-04T17:47:43.577376,15.27601123,.00014189,43.0030,322.0112,268.4206,91.6483,0,U,56705,999,17369,.18088322E-3,.4722E-4,0
STARLINK-30079,2023-067U,2026-07-04T16:43:36.238080,15.27581341,.00017894,43.0053,340.5876,266.8288,93.2359,0,U,56706,999,17347,.18095585E-3,.4721E-4,0
STARLINK-30070,2023-067V,2026-07-04T16:40:08.893632,15.27595247,.00007958,43.0021,330.3505,239.3627,120.7146,0,U,56707,999,17359,.22594297E-3,.5963E-4,0
STARLINK-30071,2023-067W,2026-07-04T16:54:16.340256,15.27594836,.00011986,43.0029,333.8252,266.9729,93.0986,0,U,56708,999,17355,.45320633E-3,.12235E-3,0
STARLINK-30085,2023-067X,2026-07-04T16:01:18.358176,15.27597758,.00011373,43.0012,330.1405,231.0134,129.0617,0,U,56709,999,17333,.13145366E-3,.3359E-4,0
STARLINK-6197,2023-078A,2026-07-04T21:33:11.628864,15.21776460,.00039958,69.9880,44.3675,299.8501,60.2273,0,U,56767,999,17035,.24059775E-2,.55017E-3,0
STARLINK-6198,2023-078B,2026-07-04T19:55:17.227200,14.98332929,.00026526,69.9994,28.9683,267.2453,92.8403,0,U,56768,999,17072,.10384031E-3,.1146E-4,0
STARLINK-6342,2023-078D,2026-07-04T10:19:24.242016,14.98330870,.00030774,70.0000,70.1172,269.5524,90.5283,0,U,56770,999,16967,-.21092375E-3,-.2609E-4,0
STARLINK-6275,2023-078F,2026-07-04T10:13:10.332192,14.98331992,.00029257,70.0010,70.1011,272.3421,87.7403,0,U,56772,999,16967,.7626327E-5,-.2E-7,0
STARLINK-6296,2023-078G,2026-07-04T19:06:55.596384,14.98335290,.0002615,69.9992,9.3594,267.3594,92.7265,0,U,56773,999,17120,.66322487E-4,.699E-5,0
STARLINK-6190,2023-078H,2026-07-04T09:07:04.189440,14.98333253,.00028319,69.9998,70.3385,271.4755,88.6080,0,U,56774,999,16966,.35125667E-4,.326E-5,0
STARLINK-6292,2023-078J,2026-07-04T19:00:54.281088,14.98332882,.00031047,69.9994,9.3449,269.8167,90.2636,0,U,56775,999,17120,.53166497E-4,.541E-5,0
STARLINK-6274,2023-078K,2026-07-04T06:48:13.091904,14.98319282,.00031185,69.9998,30.6658,270.4208,89.6593,0,U,56776,999,17063,.7122735E-4,.757E-5,0
STARLINK-5582,2023-078L,2026-07-04T09:00:44.431200,14.98331011,.00028583,69.9999,50.4528,268.1773,91.9058,0,U,56777,999,17015,.645732E-4,.678E-5,0
STARLINK-6304,2023-078M,2026-07-04T19:31:15.942144,14.98327816,.00024794,70.0002,29.3046,266.2726,93.8149,0,U,56778,999,17071,.46216972E-3,.5425E-4,0
